"zip","area_name","LA_city","lon","lat","native_territories","native_languages"
90001,"Florence/South Central",TRUE,-118.2468148,33.9697897,"Chumash,Tongva,Kizh","Tongva"
90002,"Watts",TRUE,-118.2497386,33.9511133,"Chumash,Tongva,Kizh","Tongva"
90003,"South Central",TRUE,-118.2731269,33.9657994,"Chumash,Tongva,Kizh","Tongva"
90004,"Hancock Park",TRUE,-118.3082034,34.0748887,"Chumash,Tongva,Kizh","Tongva"
90005,"Koreatown",TRUE,-118.3096648,34.0578814,"Chumash,Tongva,Kizh","Tongva"
90006,"Pico Heights",TRUE,-118.2965121,34.0470832,"Chumash,Tongva,Kizh","Tongva"
90007,"South Central",TRUE,-118.2848199,34.0295114,"Chumash,Tongva,Kizh","Tongva"
90008,"Baldwin Hills/Crenshaw/Leimert Park",TRUE,-118.3491169,34.0083231,"Chumash,Tongva,Kizh","Tongva"
90009,"Airport Worldway",TRUE,-118.3869165,33.9532336,"Chumash,Tongva,Kizh","Tongva"
90010,"Wilshire Blvd",TRUE,-118.3089341,34.0625448,"Chumash,Tongva,Kizh","Tongva"
90011,"South Central",TRUE,-118.2585096,34.007889,"Chumash,Tongva,Kizh","Tongva"
90012,"Civic Center/Chinatown",TRUE,-118.243891,34.0653347,"Chumash,Tongva,Kizh","Tongva"
90013,"Downtown Los Angeles",TRUE,-118.2405557,34.0445905,"Chumash,Tongva,Kizh","Tongva"
90014,"Los Angeles",FALSE,-118.2519314,34.0434783,"Chumash,Tongva,Kizh","Tongva"
90015,"Downtown Los Angeles",TRUE,-118.2672801,34.0390107,"Chumash,Tongva,Kizh","Tongva"
90016,"West Adams",TRUE,-118.3520389,34.0255188,"Chumash,Tongva,Kizh","Tongva"
90017,"Downtown Los Angeles",TRUE,-118.2672801,34.0543797,"Chumash,Tongva,Kizh","Tongva"
90018,"Jefferson Park",TRUE,-118.319894,34.0309972,"Chumash,Tongva,Kizh","Tongva"
90019,"Country Club Park/Mid City",TRUE,-118.3403506,34.0489277,"Chumash,Tongva,Kizh","Tongva"
90020,"Hancock Park",TRUE,-118.3096648,34.0655627,"Chumash,Tongva,Kizh","Tongva"
90021,"Downtown Los Angeles",TRUE,-118.2380432,34.0309258,"Chumash,Tongva,Kizh","Tongva"
90022,"East Los Angeles",FALSE,-118.153228,34.0238187,"Chumash,Tongva,Kizh","Tongva"
90023,"East Los Angeles",TRUE,-118.2000277,34.0224471,"Chumash,Tongva,Kizh","Tongva"
90024,"Westwood",TRUE,-118.4367551,34.0631451,"Chumash,Tongva,Kizh","Chumash,Tongva"
90025,"Sawtelle/West Los Angeles",TRUE,-118.4484367,34.0448583,"Chumash,Tongva,Kizh","Chumash,Tongva"
90026,"Echo Park/Silverlake",TRUE,-118.2585096,34.0796167,"Chumash,Tongva,Kizh","Tongva"
90027,"Griffith Park/Los Feliz",TRUE,-118.2935891,34.1220545,"Chumash,Tongva,Kizh","Tongva"
90028,"Hollywood",TRUE,-118.325739,34.1012181,"Chumash,Tongva,Kizh","Tongva"
90029,"Downtown Los Angeles",TRUE,-118.2965121,34.0880507,"Chumash,Tongva,Kizh","Tongva"
90030,"Terminal Annex",TRUE,-118.24,34.06,"Chumash,Tongva,Kizh","Tongva"
90031,"Montecito Heights",TRUE,-118.2117257,34.081032,"Chumash,Tongva,Kizh","Tongva"
90032,"El Sereno/Monterey Hills",TRUE,-118.1766294,34.0795169,"Chumash,Tongva,Kizh","Tongva"
90033,"Boyle Heights",TRUE,-118.2117257,34.0502898,"Chumash,Tongva,Kizh","Tongva"
90034,"Palms",TRUE,-118.395863,34.0324632,"Chumash,Tongva,Kizh","Tongva"
90035,"West Fairfax",TRUE,-118.3841777,34.050751,"Chumash,Tongva,Kizh","Tongva"
90036,"Park La Brea",TRUE,-118.3520389,34.0664817,"Chumash,Tongva,Kizh","Tongva"
90037,"South Central",TRUE,-118.2818967,34.002058,"Chumash,Tongva,Kizh","Tongva"
90038,"Hollywood",TRUE,-118.3315838,34.0895186,"Chumash,Tongva,Kizh","Tongva"
90039,"Atwater Village",TRUE,-118.2585096,34.1103407,"Chumash,Tongva,Kizh","Tongva"
90040,"Commerce, City of",FALSE,-118.153228,33.9930471,"Chumash,Tongva,Kizh","Tongva"
90041,"Eagle Rock",TRUE,-118.2117257,34.1322469,"Chumash,Tongva,Kizh","Tongva"
90042,"Highland Park",TRUE,-118.188329,34.1175895,"Chumash,Tongva,Kizh","Tongva"
90043,"Hyde Park/View Park/Windsor Hills",TRUE,-118.3286614,33.9903827,"Chumash,Tongva,Kizh","Tongva"
90044,"Athens",FALSE,-118.2935891,33.9478802,"Chumash,Tongva,Kizh","Tongva"
90045,"LAX Area/Westchester",TRUE,-118.3875775,33.9516114,"Chumash,Tongva,Kizh","Tongva"
90046,"Mount Olympus",TRUE,-118.3637264,34.1147313,"Chumash,Tongva,Kizh","Tongva"
90047,"South Central",TRUE,-118.3082034,33.9519253,"Chumash,Tongva,Kizh","Tongva"
90048,"West Beverly",TRUE,-118.3724915,34.0741548,"Chumash,Tongva,Kizh","Tongva"
90049,"Bel Air Estates/Brentwood",TRUE,-118.4980744,34.0963058,"Chumash,Tongva,Kizh","Chumash,Tongva"
90050,"Los Angeles",FALSE,-118.2036321,34.1206108,"Chumash,Tongva,Kizh","Tongva"
90051,"Los Angeles",FALSE,-118.25,33.95,"Chumash,Tongva,Kizh","Tongva"
90052,"Los Angeles",FALSE,-118.2592405,33.9788726,"Chumash,Tongva,Kizh","Tongva"
90053,"Los Angeles",FALSE,-118.2399854,34.0499892,"Chumash,Tongva,Kizh","Tongva"
90054,"Los Angeles",FALSE,-118.24,34.06,"Chumash,Tongva,Kizh","Tongva"
90055,"Los Angeles",FALSE,-118.2584017,34.038371,"Chumash,Tongva,Kizh","Tongva"
90056,"Ladera Heights",TRUE,-118.3666482,33.9885683,"Chumash,Tongva,Kizh","Tongva"
90057,"Westlake",TRUE,-118.2789735,34.0617061,"Chumash,Tongva,Kizh","Tongva"
90058,"Vernon",FALSE,-118.2234229,34.0063747,"Chumash,Tongva,Kizh","Tongva"
90059,"Watts/Willowbrook",TRUE,-118.2468148,33.9287591,"Chumash,Tongva,Kizh","Tongva"
90060,"Los Angeles",FALSE,-118.24,34.06,"Chumash,Tongva,Kizh","Tongva"
90061,"South Central",TRUE,-118.2731269,33.9196443,"Tongva,Kizh","Tongva"
90062,"South Central",TRUE,-118.3082034,34.0031792,"Chumash,Tongva,Kizh","Tongva"
90063,"City Terrace",FALSE,-118.1854042,34.0440239,"Chumash,Tongva,Kizh","Tongva"
90064,"Cheviot Hills/Rancho Park",TRUE,-118.4221519,34.0386656,"Chumash,Tongva,Kizh","Tongva"
90065,"Cypress Park/Glassell Park/Mt. Washin",TRUE,-118.2234229,34.10885,"Chumash,Tongva,Kizh","Tongva"
90066,"Mar Vista",TRUE,-118.4338345,34.0050173,"Chumash,Tongva,Kizh","Tongva"
90067,"Century City",TRUE,-118.4148498,34.0571327,"Chumash,Tongva,Kizh","Tongva"
90068,"Hollywood",TRUE,-118.3286614,34.1235157,"Chumash,Tongva,Kizh","Tongva"
90069,"West Hollywood",FALSE,-118.3783347,34.0931603,"Chumash,Tongva,Kizh","Tongva"
90070,"Los Angeles",FALSE,-118.3101649,34.0598902,"Chumash,Tongva,Kizh","Tongva"
90071,"ARCO Towers",TRUE,-118.2548551,34.052996,"Chumash,Tongva,Kizh","Tongva"
90072,"Los Angeles",FALSE,-118.3092914,34.0965275,"Chumash,Tongva,Kizh","Tongva"
90073,"VA Hospital (Sawtelle)",FALSE,-118.452087,34.0522561,"Chumash,Tongva,Kizh","Chumash,Tongva"
90075,"Los Angeles",FALSE,-118.3100196,34.059975,"Chumash,Tongva,Kizh","Tongva"
90076,"Los Angeles",FALSE,-118.3099973,34.0599809,"Chumash,Tongva,Kizh","Tongva"
90077,"Bel Air Estates & Beverly Glen",TRUE,-118.4571974,34.1014861,"Chumash,Tongva,Kizh","Chumash,Tongva"
90078,"Los Angeles",FALSE,-118.3310632,34.0993907,"Chumash,Tongva,Kizh","Tongva"
90079,"Los Angeles",FALSE,-118.2554032,34.0405313,"Chumash,Tongva,Kizh","Tongva"
90080,"Airport Worldway",TRUE,NA,NA,NA,NA
90081,"Los Angeles",FALSE,-118.2511908,34.052984,"Chumash,Tongva,Kizh","Tongva"
90082,"Los Angeles",FALSE,-118.2798042,33.9999897,"Chumash,Tongva,Kizh","Tongva"
90083,"Los Angeles",FALSE,-118.4,33.95,"Chumash,Tongva,Kizh","Tongva"
90086,"Los Angeles",FALSE,-118.24,34.06,"Chumash,Tongva,Kizh","Tongva"
90087,"Los Angeles",FALSE,-118.24,34.06,"Chumash,Tongva,Kizh","Tongva"
90089,"USC",TRUE,-118.2892046,34.0220127,"Chumash,Tongva,Kizh","Tongva"
90091,"Los Angeles",FALSE,-118.1499982,33.9899979,"Chumash,Tongva,Kizh","Tongva"
90093,"Los Angeles",FALSE,-118.33,34.1,"Chumash,Tongva,Kizh","Tongva"
90094,"Playa Vista",FALSE,-118.4177707,33.9744806,"Chumash,Tongva,Kizh","Tongva"
90095,"Los Angeles",FALSE,-118.4440562,34.070264,"Chumash,Tongva,Kizh","Chumash,Tongva"
90099,"Los Angeles",FALSE,-118.24,34.06,"Chumash,Tongva,Kizh","Tongva"
90201,"Bell/Bell Gardens/Cudahy",FALSE,-118.1766294,33.9667212,"Chumash,Tongva,Kizh","Tongva"
90202,"Bell Gardens",FALSE,-118.19,33.9799999,"Chumash,Tongva,Kizh","Tongva"
90209,"Beverly Hills",FALSE,-118.389995,34.0699904,"Chumash,Tongva,Kizh","Tongva"
90210,"Beverly Hills/Beverly Glen",TRUE,-118.4069666,34.0683231,"Chumash,Tongva,Kizh","Tongva"
90211,"Beverly Hills",FALSE,-118.3841777,34.0661071,"Chumash,Tongva,Kizh","Tongva"
90212,"Beverly Hills",FALSE,-118.4017053,34.0617109,"Chumash,Tongva,Kizh","Tongva"
90213,"Beverly Hills",FALSE,-118.3997374,34.0695104,"Chumash,Tongva,Kizh","Tongva"
90220,"Compton/Rancho Dominguez",FALSE,-118.2351192,33.8803536,"Tongva,Kizh","Tongva"
90221,"East Rancho Dominguez",FALSE,-118.2000277,33.8890686,"Tongva,Kizh","Tongva"
90222,"Compton/Rosewood/Willowbrook",FALSE,-118.2351192,33.9111458,"Tongva,Kizh","Tongva"
90223,"Compton",FALSE,-118.2199049,33.89989,"Tongva,Kizh","Tongva"
90224,"Compton",FALSE,-118.22,33.89,"Tongva,Kizh","Tongva"
90230,"Culver City",FALSE,-118.3987842,33.9933257,"Chumash,Tongva,Kizh","Tongva"
90231,"Culver City",FALSE,-118.39,34,"Chumash,Tongva,Kizh","Tongva"
90232,"Culver City",FALSE,-118.3900204,34.0236878,"Chumash,Tongva,Kizh","Tongva"
90233,"Culver City",FALSE,-118.3899667,33.9799584,"Chumash,Tongva,Kizh","Tongva"
90239,"Downey",FALSE,-118.13,33.94,"Tongva,Kizh","Tongva"
90240,"Downey",FALSE,-118.1210458,33.9574105,"Tongva,Kizh","Tongva"
90241,"Downey",FALSE,-118.1298234,33.9372725,"Tongva,Kizh","Tongva"
90242,"Downey",FALSE,-118.1298234,33.9167378,"Tongva,Kizh","Tongva"
90245,"El Segundo",FALSE,-118.4046264,33.9150066,"Tongva,Kizh","Tongva"
90247,"Gardena",FALSE,-118.2935891,33.8863314,"Tongva,Kizh","Tongva"
90248,"Gardena",FALSE,-118.2935891,33.8658064,"Tongva,Kizh","Tongva"
90249,"Gardena",FALSE,-118.3169714,33.901022,"Tongva,Kizh","Tongva"
90250,"Hawthorne (Holly Park)",FALSE,-118.3520389,33.9127807,"Tongva,Kizh","Tongva"
90251,"Hawthorne",FALSE,-118.35,33.92,"Tongva,Kizh","Tongva"
90254,"Hermosa Beach",FALSE,-118.3987842,33.8600693,"Tongva,Kizh","Tongva"
90255,"Huntington Park/Walnut Park",FALSE,-118.2234229,33.9756107,"Chumash,Tongva,Kizh","Tongva"
90260,"Lawndale",FALSE,-118.3520389,33.8922687,"Tongva,Kizh","Tongva"
90261,"Lawndale (Federal Bldg)",FALSE,-118.3776043,33.8954945,"Tongva,Kizh","Tongva"
90262,"Lynwood",FALSE,-118.2000277,33.9198647,"Tongva,Kizh","Tongva"
90263,"Pepperdine University (Malibu)",FALSE,-118.7037647,34.0327657,"Micqanaqa’n,Chumash,Tongva","Chumash,Ventureño,Tongva"
90264,"Malibu",FALSE,-118.6941818,34.0349051,"Micqanaqa’n,Chumash,Tongva","Chumash,Ventureño,Tongva"
90265,"Malibu",FALSE,-118.8363756,34.0615492,"Micqanaqa’n,Chumash","Chumash,Ventureño"
90266,"Manhattan Beach",FALSE,-118.3987842,33.8908371,"Tongva,Kizh","Tongva"
90267,"Manhattan Beach",FALSE,-118.41,33.88,"Tongva,Kizh","Tongva"
90270,"Maywood",FALSE,-118.1854042,33.9876248,"Chumash,Tongva,Kizh","Tongva"
90272,"Castellemare/Pacific Highlands/Pacifi",TRUE,-118.5447787,34.0845245,"Chumash,Tongva,Kizh","Chumash,Tongva"
90274,"Palos Verdes Estates/Rolling Hills/Rolling Hills Estates",FALSE,-118.3520389,33.7793751,"Tongva,Kizh","Tongva"
90275,"Rancho Palos Verdes",FALSE,-118.3637264,33.7456493,"Tongva,Kizh","Tongva"
90277,"Redondo Beach/Torrance",FALSE,-118.3870991,33.8322129,"Tongva,Kizh","Tongva"
90278,"Redondo Beach/Torrance",FALSE,-118.3754131,33.865913,"Tongva,Kizh","Tongva"
90280,"South Gate",FALSE,-118.188329,33.9432948,"Chumash,Tongva,Kizh","Tongva"
90290,"Topanga",FALSE,-118.61481,34.1076983,"Micqanaqa’n,Chumash,Tongva,Fernandeño Tataviam,Kizh","Chumash,Tongva"
90291,"Venice",TRUE,-118.4688776,33.9962144,"Chumash,Tongva,Kizh","Tongva"
90292,"Marina del Rey",FALSE,-118.4571974,33.9684276,"Chumash,Tongva,Kizh","Tongva"
90293,"Playa del Rey",TRUE,-118.4455164,33.9508728,"Chumash,Tongva,Kizh","Tongva"
90294,"Venice",TRUE,-118.46,33.99,"Chumash,Tongva,Kizh","Tongva"
90295,"Marina del Rey",FALSE,-118.4499975,33.979998,"Chumash,Tongva,Kizh","Tongva"
90296,"Playa Del Rey",FALSE,-118.44,33.95,"Chumash,Tongva,Kizh","Tongva"
90301,"Inglewood",FALSE,-118.3520389,33.9537917,"Chumash,Tongva,Kizh","Tongva"
90302,"Inglewood",FALSE,-118.3520389,33.9742906,"Chumash,Tongva,Kizh","Tongva"
90303,"Inglewood",FALSE,-118.3315838,33.9358352,"Chumash,Tongva,Kizh","Tongva"
90304,"Lennox",FALSE,-118.3608046,33.9387862,"Chumash,Tongva,Kizh","Tongva"
90305,"Inglewood",FALSE,-118.3286614,33.9596334,"Chumash,Tongva,Kizh","Tongva"
90306,"Inglewood",FALSE,-118.3499862,33.9599711,"Chumash,Tongva,Kizh","Tongva"
90307,"Inglewood",FALSE,-118.35,33.96,"Chumash,Tongva,Kizh","Tongva"
90308,"Inglewood",FALSE,-118.35,33.96,"Chumash,Tongva,Kizh","Tongva"
90309,"Inglewood",FALSE,-118.36,33.97,"Chumash,Tongva,Kizh","Tongva"
90310,"Inglewood",FALSE,-118.32,33.93,"Chumash,Tongva,Kizh","Tongva"
90311,"Inglewood",FALSE,-118.35,33.96,"Chumash,Tongva,Kizh","Tongva"
90312,"Inglewood",FALSE,-118.349893,33.9600199,"Chumash,Tongva,Kizh","Tongva"
90401,"Santa Monica",FALSE,-118.495155,34.0126379,"Chumash,Tongva,Kizh","Chumash,Tongva"
90402,"Santa Monica",FALSE,-118.5068325,34.0352816,"Chumash,Tongva,Kizh","Chumash,Tongva"
90403,"Santa Monica",FALSE,-118.495155,34.0279895,"Chumash,Tongva,Kizh","Chumash,Tongva"
90404,"Santa Monica",FALSE,-118.4717975,34.02875,"Chumash,Tongva,Kizh","Chumash,Tongva"
90405,"Santa Monica",FALSE,-118.4659576,34.009746,"Chumash,Tongva,Kizh","Chumash,Tongva"
90406,"Santa Monica",FALSE,-118.5000014,34.0199977,"Chumash,Tongva,Kizh","Chumash,Tongva"
90407,"Santa Monica",FALSE,-118.5,34.02,"Chumash,Tongva,Kizh","Chumash,Tongva"
90408,"Santa Monica",FALSE,-118.4903818,34.0258537,"Chumash,Tongva,Kizh","Chumash,Tongva"
90409,"Santa Monica",FALSE,-118.48,34,"Chumash,Tongva,Kizh","Chumash,Tongva"
90410,"Santa Monica",FALSE,-118.5,34.02,"Chumash,Tongva,Kizh","Chumash,Tongva"
90411,"Santa Monica",FALSE,-118.5,34.02,"Chumash,Tongva,Kizh","Chumash,Tongva"
90501,"Torrance",FALSE,-118.3169714,33.8291867,"Tongva,Kizh","Tongva"
90502,"Torrance",FALSE,-118.2906661,33.8331717,"Tongva,Kizh","Tongva"
90503,"Torrance",FALSE,-118.3520389,33.8409696,"Tongva,Kizh","Tongva"
90504,"Torrance",FALSE,-118.3286614,33.8673266,"Tongva,Kizh","Tongva"
90505,"Torrance",FALSE,-118.3520389,33.8101772,"Tongva,Kizh","Tongva"
90506,"Torrance (Camino College)",FALSE,-118.329392,33.8844585,"Tongva,Kizh","Tongva"
90507,"Torrance",FALSE,-118.31,33.83,"Tongva,Kizh","Tongva"
90508,"Torrance",FALSE,-118.31,33.83,"Tongva,Kizh","Tongva"
90509,"Torrance",FALSE,-118.33,33.83,"Tongva,Kizh","Tongva"
90510,"Torrance",FALSE,-118.328528,33.827044,"Tongva,Kizh","Tongva"
90601,"Whittier",FALSE,-118.0303189,34.0080684,"Tongva,Kizh","Tongva"
90602,"Whittier",FALSE,-118.0215363,33.9717336,"Tongva,Kizh","Tongva"
90603,"Whittier",FALSE,-117.9931472,33.9443011,"Tongva,Kizh","Tongva"
90604,"Whittier",FALSE,-118.0244639,33.9324943,"Tongva,Kizh","Tongva"
90605,"Whittier/South Whittier",FALSE,-118.0273914,33.9548846,"Tongva,Kizh","Tongva"
90606,"Los Nietos",FALSE,-118.0712981,33.9722831,"Tongva,Kizh","Tongva"
90607,"Whittier",FALSE,-118.02,33.96,"Tongva,Kizh","Tongva"
90608,"Whittier (Whittier College)",FALSE,-118.035064,33.9807825,"Tongva,Kizh","Tongva"
90609,"Whittwood (Whittier)",FALSE,-118.03,33.9799999,"Tongva,Kizh","Tongva"
90610,"Los Nietos (Whittier)",FALSE,-118.07,33.97,"Tongva,Kizh","Tongva"
90623,"La Palma",FALSE,-118.0449554,33.8477954,"Tongva,Acjachemen (Juaneño),Kizh","Tongva"
90630,"Cypress",FALSE,-118.0361736,33.816539,"Tongva,Acjachemen (Juaneño),Kizh","Tongva"
90631,"La Habra Heights",FALSE,-117.9600466,33.9226618,"Tongva,Acjachemen (Juaneño),Kizh","Tongva"
90637,"La Mirada",FALSE,-118.0037566,33.8957,"Tongva,Kizh","Tongva"
90638,"La Mirada",FALSE,-118.0127534,33.9045543,"Tongva,Kizh","Tongva"
90639,"La Mirada (Biola Univ.)",FALSE,-118.0179682,33.9052822,"Tongva,Kizh","Tongva"
90640,"Montebello",FALSE,-118.1064156,34.0149091,"Tongva,Kizh","Tongva"
90650,"Norwalk",FALSE,-118.0830047,33.9077751,"Tongva,Kizh","Tongva"
90651,"Norwalk",FALSE,-118.0784449,33.9045574,"Tongva,Kizh","Tongva"
90651,"Norwalk",FALSE,-118.0784449,33.9045574,"Tongva,Kizh","Tongva"
90652,"Norwalk",FALSE,-118.0784449,33.9045574,"Tongva,Kizh","Tongva"
90660,"Pico Rivera",FALSE,-118.0947106,33.9870228,"Tongva,Kizh","Tongva"
90661,"Pico Rivera",FALSE,-118.0857083,33.9859405,"Tongva,Kizh","Tongva"
90662,"Pico Rivera",FALSE,-118.0857083,33.9859405,"Tongva,Kizh","Tongva"
90670,"Santa Fe Springs",FALSE,-118.0712981,33.9414796,"Tongva,Kizh","Tongva"
90671,"Santa Fe Springs",FALSE,-118.08,33.95,"Tongva,Kizh","Tongva"
90701,"Cerritos",FALSE,-118.0800782,33.8648303,"Tongva,Kizh","Tongva"
90702,"Artesia",FALSE,-118.0838799,33.8657838,"Tongva,Kizh","Tongva"
90703,"Cerritos",FALSE,-118.0595907,33.8724552,"Tongva,Kizh","Tongva"
90704,"Avalon",FALSE,-118.4396756,33.3614631,"Tongva,Payómkawichum (Luiseño),Acjachemen (Juaneño),Kizh","Tongva"
90706,"Bellflower",FALSE,-118.1239717,33.8822393,"Tongva,Kizh","Tongva"
90707,"Bellflower",FALSE,-118.1243793,33.8821364,"Tongva,Kizh","Tongva"
90710,"Harbor City",TRUE,-118.2965121,33.7957752,"Tongva,Kizh","Tongva"
90711,"Lakewood",FALSE,-118.1330353,33.8522282,"Tongva,Kizh","Tongva"
90712,"Lakewood",FALSE,-118.153228,33.8493162,"Tongva,Kizh","Tongva"
90713,"Lakewood",FALSE,-118.1181199,33.8477257,"Tongva,Kizh","Tongva"
90714,"Lakewood",FALSE,-118.1330353,33.8522282,"Tongva,Kizh","Tongva"
90715,"Lakewood",FALSE,-118.0783974,33.8413324,"Tongva,Kizh","Tongva"
90716,"Hawaiian Gardens",FALSE,-118.0742249,33.830298,"Tongva,Kizh","Tongva"
90717,"Lomita/Rancho Palos Verdes",FALSE,-118.319894,33.7950887,"Tongva,Kizh","Tongva"
90723,"Paramount",FALSE,-118.1649291,33.8977737,"Tongva,Kizh","Tongva"
90731,"San Pedro/Terminal Island",TRUE,-118.2643567,33.7241323,"Tongva,Kizh","Tongva"
90732,"Rancho Palos Verdes",FALSE,-118.3140488,33.7349075,"Tongva,Kizh","Tongva"
90733,"San Pedro",TRUE,-118.2805078,33.7367479,"Tongva,Kizh","Tongva"
90734,"San Pedro",FALSE,-118.2922222,33.7358333,"Tongva,Kizh","Tongva"
90744,"Wilmington",TRUE,-118.2643567,33.7857948,"Tongva,Kizh","Tongva"
90745,"Carson",FALSE,-118.2585096,33.8232001,"Tongva,Kizh","Tongva"
90746,"Carson",FALSE,-118.2585096,33.8540061,"Tongva,Kizh","Tongva"
90747,"Carson (Cal State Univ. Dominguez Hills)",FALSE,-118.2558801,33.8641714,"Tongva,Kizh","Tongva"
90748,"Wilmington",TRUE,-118.2626058,33.7830899,"Tongva,Kizh","Tongva"
90749,"Carson",FALSE,-118.26,33.83,"Tongva,Kizh","Tongva"
90755,"Signal Hill",FALSE,-118.1678543,33.8020217,"Tongva,Kizh","Tongva"
90801,"Long Beach",FALSE,-118.187732,33.7705139,"Tongva,Kizh","Tongva"
90802,"Long Beach",FALSE,-118.1941785,33.7415317,"Tongva,Kizh","Tongva"
90803,"Long Beach",FALSE,-118.1298234,33.7523035,"Tongva,Kizh","Tongva"
90804,"Long Beach",FALSE,-118.1503026,33.7806646,"Tongva,Kizh","Tongva"
90805,"North Long Beach (Long Beach)",FALSE,-118.1766294,33.8640647,"Tongva,Kizh","Tongva"
90806,"Long Beach",FALSE,-118.1912538,33.8065036,"Tongva,Kizh","Tongva"
90807,"Long Beach",FALSE,-118.1766294,33.8332465,"Tongva,Kizh","Tongva"
90808,"Long Beach",FALSE,-118.1064156,33.8197825,"Tongva,Kizh","Tongva"
90809,"Long Beach",FALSE,-118.1495712,33.798194,"Tongva,Kizh","Tongva"
90810,"Carson/Long Beach",FALSE,-118.2234229,33.8113701,"Tongva,Kizh","Tongva"
90813,"Long Beach",FALSE,-118.1971031,33.7844997,"Tongva,Kizh","Tongva"
90814,"Long Beach",FALSE,-118.1429889,33.7709051,"Tongva,Kizh","Tongva"
90815,"Long Beach",FALSE,-118.1181199,33.7963296,"Tongva,Kizh","Tongva"
90822,"Long Beach",FALSE,-118.1495712,33.8084732,"Tongva,Kizh","Tongva"
90831,"Long Beach (World Trade Center)",FALSE,-118.2022212,33.7684556,"Tongva,Kizh","Tongva"
90832,"Long Beach (World Trade Center)",FALSE,-118.1999698,33.7699125,"Tongva,Kizh","Tongva"
90833,"Long Beach",FALSE,-118.1994298,33.7679552,"Tongva,Kizh","Tongva"
90834,"Long Beach",FALSE,-118.1991138,33.7674587,"Tongva,Kizh","Tongva"
90835,"Long Beach",FALSE,-118.1994298,33.767963,"Tongva,Kizh","Tongva"
90840,"Long Beach (Cal State University Long Beach)",FALSE,-118.1206801,33.7838081,"Tongva,Acjachemen (Juaneño),Kizh","Tongva"
90846,"Long Beach (Boeing)",FALSE,-118.145183,33.8301142,"Tongva,Kizh","Tongva"
90853,"Belmont Shores (Long Beach)",FALSE,-118.1291576,33.7591962,"Tongva,Acjachemen (Juaneño),Kizh","Tongva"
91001,"Altadena",FALSE,-118.1239717,34.2103962,"Tongva,Kizh","Tongva"
91003,"Altadena",FALSE,-118.13,34.19,"Tongva,Kizh","Tongva"
91006,"Arcadia",FALSE,-118.0244639,34.1172361,"Tongva,Kizh","Tongva"
91007,"Arcadia",FALSE,-118.0478826,34.1216975,"Tongva,Kizh","Tongva"
91008,"Duarte",FALSE,-117.9659037,34.1624549,"Tongva,Kizh","Tongva"
91009,"Duarte",FALSE,-117.9792387,34.1397138,"Tongva,Kizh","Tongva"
91010,"Bradbury",FALSE,-117.9424743,34.1579788,"Tongva,Kizh","Tongva"
91011,"La Canada-Flintridge",FALSE,-118.1941785,34.2133926,"Tongva,Kizh","Tongva"
91012,"La Canada-Flintridge",FALSE,-118.22,34.21,"Chumash,Tongva,Fernandeño Tataviam,Kizh","Tongva"
91016,"Monrovia",FALSE,-118.0068979,34.1574588,"Tongva,Kizh","Tongva"
91017,"Monrovia",FALSE,-118,34.15,"Tongva,Kizh","Tongva"
91020,"Montrose",FALSE,-118.2321952,34.2115828,"Chumash,Tongva,Fernandeño Tataviam,Kizh","Tongva"
91021,"Montrose",FALSE,-118.22,34.21,"Chumash,Tongva,Fernandeño Tataviam,Kizh","Tongva"
91023,"Mount Wilson",FALSE,-118.0676991,34.2276262,"Tongva,Kizh","Tataviam,Tongva"
91024,"Sierra Madre",FALSE,-118.0478826,34.1934312,"Tongva,Kizh","Tongva"
91025,"Sierra Madre",FALSE,-118.05,34.1599999,"Tongva,Kizh","Tongva"
91030,"South Pasadena",FALSE,-118.153228,34.1058277,"Tongva,Kizh","Tongva"
91031,"South Pasadena",FALSE,-118.15,34.12,"Tongva,Kizh","Tongva"
91040,"Shadow Hills/Sunland",TRUE,-118.3111262,34.2864053,"Chumash,Tongva,Fernandeño Tataviam,Kizh","Tataviam,Tongva"
91041,"Sunland",TRUE,-118.3,34.27,"Chumash,Tongva,Fernandeño Tataviam,Kizh","Tataviam,Tongva"
91042,"Tujunga",TRUE,-118.2292712,34.296676,"Tongva,Fernandeño Tataviam,Kizh","Tataviam,Tongva"
91043,"Tujunga",TRUE,-118.2899871,34.2499923,"Chumash,Tongva,Fernandeño Tataviam,Kizh","Tataviam,Tongva"
91046,"Glendale (Verdugo City)",FALSE,-118.240734,34.211442,"Chumash,Tongva,Fernandeño Tataviam,Kizh","Tongva"
91066,"Arcadia",FALSE,-118.03,34.14,"Tongva,Kizh","Tongva"
91077,"Arcadia",FALSE,-118.05,34.13,"Tongva,Kizh","Tongva"
91101,"Pasadena",FALSE,-118.1386005,34.1427587,"Tongva,Kizh","Tongva"
91102,"Pasadena",FALSE,-118.1419472,34.1485194,"Tongva,Kizh","Tongva"
91103,"Pasadena",FALSE,-118.153228,34.1672881,"Tongva,Kizh","Tongva"
91104,"Pasadena",FALSE,-118.1181199,34.1657707,"Tongva,Kizh","Tongva"
91105,"Pasadena",FALSE,-118.1678543,34.1406082,"Tongva,Kizh","Tongva"
91106,"Pasadena",FALSE,-118.1268976,34.1456654,"Tongva,Kizh","Tongva"
91107,"Pasadena",FALSE,-118.0830047,34.1642396,"Tongva,Kizh","Tongva"
91108,"San Marino",FALSE,-118.1181199,34.1247921,"Tongva,Kizh","Tongva"
91109,"Pasadena",FALSE,-118.1528623,34.1561783,"Tongva,Kizh","Tongva"
91114,"Pasadena",FALSE,-118.13,34.17,"Tongva,Kizh","Tongva"
91115,"Pasadena",FALSE,-118.15,34.14,"Tongva,Kizh","Tongva"
91116,"Pasadena",FALSE,-118.1296057,34.1500196,"Tongva,Kizh","Tongva"
91117,"Pasadena",FALSE,-118.099449,34.149491,"Tongva,Kizh","Tongva"
91118,"San Marino",FALSE,-118.11,34.12,"Tongva,Kizh","Tongva"
91125,"Pasadena (California Institute of Technology)",FALSE,-118.1247032,34.1378866,"Tongva,Kizh","Tongva"
91125,"Pasadena (California Institute of Technology)",FALSE,-118.1247032,34.1378866,"Tongva,Kizh","Tongva"
91126,"Pasadena (California Institute of Technology)",FALSE,-118.1242089,34.1359544,"Tongva,Kizh","Tongva"
91126,"Pasadena (California Institute of Technology)",FALSE,-118.1242089,34.1359544,"Tongva,Kizh","Tongva"
91201,"Glendale",FALSE,-118.2935891,34.1629905,"Chumash,Tongva,Kizh","Tongva"
91202,"Glendale",FALSE,-118.2702036,34.1688371,"Chumash,Tongva,Kizh","Tongva"
91203,"Glendale",FALSE,-118.2614332,34.1531191,"Chumash,Tongva,Kizh","Tongva"
91204,"Glendale (Tropico)",FALSE,-118.2614332,34.1377656,"Chumash,Tongva,Kizh","Tongva"
91205,"Glendale (Tropico)",FALSE,-118.2468148,34.1337367,"Chumash,Tongva,Kizh","Tongva"
91206,"Glendale",FALSE,-118.2117257,34.1527251,"Chumash,Tongva,Kizh","Tongva"
91207,"Glendale",FALSE,-118.2702036,34.1893001,"Chumash,Tongva,Fernandeño Tataviam,Kizh","Tongva"
91208,"Glendale",FALSE,-118.2351192,34.1980641,"Chumash,Tongva,Fernandeño Tataviam,Kizh","Tongva"
91209,"Glendale",FALSE,-118.2518395,34.1464871,"Chumash,Tongva,Kizh","Tongva"
91210,"Galleria (Glendale)",FALSE,-118.2563169,34.144801,"Chumash,Tongva,Kizh","Tongva"
91214,"La Crescenta",FALSE,-118.2351192,34.2389818,"Chumash,Tongva,Fernandeño Tataviam,Kizh","Tataviam,Tongva"
91221,"Glendale",FALSE,-118.29,34.1599999,"Chumash,Tongva,Kizh","Tongva"
91222,"Glendale",FALSE,-118.26,34.1599999,"Chumash,Tongva,Kizh","Tongva"
91224,"Glendale",FALSE,-118.25,34.2299999,"Chumash,Tongva,Fernandeño Tataviam,Kizh","Tataviam,Tongva"
91225,"Glendale",FALSE,-118.25,34.14,"Chumash,Tongva,Kizh","Tongva"
91226,"Glendale",FALSE,-118.2499954,34.1399918,"Chumash,Tongva,Kizh","Tongva"
91301,"Agoura/Oak Park",FALSE,-118.754782,34.1129907,"Micqanaqa’n,Chumash","Chumash,Ventureño"
91302,"Calabasas/Hidden Hills",FALSE,-118.6848112,34.1307949,"Micqanaqa’n,Chumash,Tongva,Kizh","Chumash,Ventureño,Tongva"
91303,"Canoga Park",TRUE,-118.597305,34.1989453,"Chumash,Tongva,Fernandeño Tataviam,Kizh","Chumash,Tongva"
91304,"Canoga Park",TRUE,-118.6556478,34.2249609,"Micqanaqa’n,Chumash,Tongva,Fernandeño Tataviam,Kizh","Chumash,Ventureño"
91305,"Canoga Park",TRUE,-118.599807,34.1998644,"Chumash,Tongva,Fernandeño Tataviam,Kizh","Chumash,Tongva"
91306,"Winnetka",TRUE,-118.5739621,34.2048586,"Chumash,Tongva,Fernandeño Tataviam,Kizh","Chumash,Tongva"
91307,"West Hills",TRUE,-118.6848112,34.2124444,"Micqanaqa’n,Chumash,Kizh","Chumash,Ventureño"
91308,"West Hills",FALSE,-118.64,34.2,"Micqanaqa’n,Chumash,Tongva,Fernandeño Tataviam,Kizh","Chumash,Ventureño,Tongva"
91309,"Canoga Park",FALSE,-118.6,34.22,"Chumash,Tongva,Fernandeño Tataviam,Kizh","Chumash,Tongva"
91310,"Castaic",FALSE,-118.62,34.49,"Chumash,Fernandeño Tataviam",""
91311,"Chatsworth",TRUE,-118.61481,34.2710376,"Micqanaqa’n,Chumash,Tongva,Fernandeño Tataviam,Kizh","Chumash,Ventureño,Tongva"
91313,"Chatsworth",FALSE,-118.6,34.26,"Chumash,Tongva,Fernandeño Tataviam,Kizh","Chumash,Ventureño,Tongva"
91316,"Encino",TRUE,-118.5155901,34.1583323,"Chumash,Tongva,Fernandeño Tataviam,Kizh","Chumash,Tongva"
91321,"Santa Clarita (Newhall)",FALSE,-118.4747173,34.3677169,"Chumash,Fernandeño Tataviam,Kizh","Tataviam"
91322,"Newhall",FALSE,-118.5473013,34.3792628,"Chumash,Fernandeño Tataviam",""
91324,"Northridge",TRUE,-118.5506158,34.2413938,"Chumash,Tongva,Fernandeño Tataviam,Kizh","Chumash,Tongva"
91325,"Northridge",TRUE,-118.5155901,34.2400436,"Chumash,Tongva,Fernandeño Tataviam,Kizh","Chumash,Tongva"
91326,"Porter Ranch",TRUE,-118.5622893,34.2894584,"Chumash,Tongva,Fernandeño Tataviam,Kizh","Chumash,Tongva"
91327,"Northridge",FALSE,-118.54,34.27,"Chumash,Tongva,Fernandeño Tataviam,Kizh","Chumash,Tongva"
91328,"Northridge",FALSE,-118.54,34.24,"Chumash,Tongva,Fernandeño Tataviam,Kizh","Chumash,Tongva"
91330,"Northridge, California State University",TRUE,-118.5258067,34.2489458,"Chumash,Tongva,Fernandeño Tataviam,Kizh","Chumash,Tongva"
91330,"Northridge, California State University",TRUE,-118.5258067,34.2489458,"Chumash,Tongva,Fernandeño Tataviam,Kizh","Chumash,Tongva"
91331,"Arleta/Pacoima",TRUE,-118.4279933,34.2570374,"Chumash,Tongva,Fernandeño Tataviam,Kizh","Chumash,Tongva"
91331,"Arleta/Pacoima",TRUE,-118.4279933,34.2570374,"Chumash,Tongva,Fernandeño Tataviam,Kizh","Chumash,Tongva"
91333,"Pacoima",FALSE,-118.43,34.26,"Chumash,Tongva,Fernandeño Tataviam,Kizh","Chumash,Tongva"
91334,"Pacoima",FALSE,-118.42,34.26,"Chumash,Tongva,Fernandeño Tataviam,Kizh","Chumash,Tongva"
91335,"Reseda",TRUE,-118.5389414,34.2035088,"Chumash,Tongva,Fernandeño Tataviam,Kizh","Chumash,Tongva"
91337,"Reseda",FALSE,-118.54,34.2,"Chumash,Tongva,Fernandeño Tataviam,Kizh","Chumash,Tongva"
91340,"San Fernando",FALSE,-118.4338345,34.2913046,"Chumash,Tongva,Fernandeño Tataviam,Kizh","Tongva"
91341,"San Fernando",FALSE,-118.44,34.28,"Chumash,Tongva,Fernandeño Tataviam,Kizh","Chumash,Tongva"
91342,"Lake View Terrace/Sylmar",TRUE,-118.3695699,34.3023759,"Chumash,Tongva,Fernandeño Tataviam,Kizh","Tataviam,Tongva"
91343,"North Hills",TRUE,-118.4805569,34.2386799,"Chumash,Tongva,Fernandeño Tataviam,Kizh","Chumash,Tongva"
91344,"Granada Hills",TRUE,-118.4980744,34.2801972,"Chumash,Tongva,Fernandeño Tataviam,Kizh","Chumash,Tongva"
91345,"Mission Hills",TRUE,-118.4571974,34.264995,"Chumash,Tongva,Fernandeño Tataviam,Kizh","Chumash,Tongva"
91346,"Mission Hills",FALSE,-118.47,34.27,"Chumash,Tongva,Fernandeño Tataviam,Kizh","Chumash,Tongva"
91350,"Agua Dulce/Saugus",FALSE,-118.5155901,34.4338228,"Chumash,Fernandeño Tataviam","Tataviam"
91351,"Santa Clarita (Canyon Country)",FALSE,-118.4571974,34.4384112,"Chumash,Fernandeño Tataviam","Tataviam"
91352,"Sun Valley",TRUE,-118.3520389,34.2301567,"Chumash,Tongva,Fernandeño Tataviam,Kizh","Tongva"
91353,"Sun Valley",FALSE,-118.37,34.22,"Chumash,Tongva,Fernandeño Tataviam,Kizh","Chumash,Tongva"
91354,"Santa Clarita (Valencia)",FALSE,-118.5622893,34.4627169,"Chumash,Fernandeño Tataviam","Tataviam"
91355,"Santa Clarita (Valencia)",FALSE,-118.5914696,34.4400287,"Chumash,Fernandeño Tataviam",""
91356,"Tarzana",TRUE,-118.5447787,34.1662848,"Chumash,Tongva,Fernandeño Tataviam,Kizh","Chumash,Tongva"
91357,"Tarzana",FALSE,-118.55,34.17,"Chumash,Tongva,Fernandeño Tataviam,Kizh","Chumash,Tongva"
91361,"Westlake Village",FALSE,-118.8946309,34.1384626,"Micqanaqa’n,Chumash","Chumash,Ventureño"
91362,"Westlake Village",FALSE,-118.824722,34.1971476,"Micqanaqa’n,Chumash","Chumash,Ventureño"
91364,"Woodland Hills",TRUE,-118.5914696,34.1544724,"Chumash,Tongva,Fernandeño Tataviam,Kizh","Chumash,Tongva"
91365,"Woodland Hills",FALSE,-118.6095343,34.1693503,"Micqanaqa’n,Chumash,Tongva,Fernandeño Tataviam,Kizh","Chumash,Tongva"
91367,"Woodland Hills",TRUE,-118.597305,34.1785255,"Chumash,Tongva,Fernandeño Tataviam,Kizh","Chumash,Tongva"
91372,"Calabasas",FALSE,-118.64,34.15,"Micqanaqa’n,Chumash,Tongva,Fernandeño Tataviam,Kizh","Chumash,Tongva"
91376,"Agoura Hills",FALSE,-118.74,34.14,"Micqanaqa’n,Chumash","Chumash,Ventureño"
91380,"Santa Clarita",FALSE,-118.4,34.5,"Chumash,Fernandeño Tataviam","Tataviam"
91381,"Stevenson Ranch",FALSE,-118.61481,34.3729805,"Chumash,Fernandeño Tataviam","Chumash"
91382,"Santa Clarita",FALSE,-118.54,34.39,"Chumash,Fernandeño Tataviam",""
91383,"Santa Clarita",FALSE,-118.64,34.43,"Chumash,Fernandeño Tataviam","Chumash"
91384,"Castaic",FALSE,-118.6964752,34.5455162,"Chumash,Fernandeño Tataviam",""
91385,"Valencia",FALSE,-118.56,34.39,"Chumash,Fernandeño Tataviam",""
91386,"Canyon Country",FALSE,-118.45,34.42,"Chumash,Fernandeño Tataviam","Tataviam"
91387,"Canyon Country",FALSE,-118.4163103,34.413057,"Chumash,Fernandeño Tataviam","Tataviam"
91390,"Santa Clarita",FALSE,-118.3346172,34.4964601,"Fernandeño Tataviam","Tataviam"
91392,"Sylmar",FALSE,-118.45,34.31,"Chumash,Tongva,Fernandeño Tataviam,Kizh","Tongva"
91393,"North Hills",FALSE,-118.28,34.1599999,"Chumash,Tongva,Kizh","Tongva"
91394,"Granada Hills",FALSE,-118.52,34.26,"Chumash,Tongva,Fernandeño Tataviam,Kizh","Chumash,Tongva"
91395,"Mission Hills",FALSE,-118.47,34.26,"Chumash,Tongva,Fernandeño Tataviam,Kizh","Chumash,Tongva"
91396,"Winnetka",FALSE,-118.57,34.21,"Chumash,Tongva,Fernandeño Tataviam,Kizh","Chumash,Tongva"
91401,"Van Nuys",TRUE,-118.4338345,34.1789379,"Chumash,Tongva,Fernandeño Tataviam,Kizh","Chumash,Tongva"
91402,"Panorama City",TRUE,-118.442596,34.2252697,"Chumash,Tongva,Fernandeño Tataviam,Kizh","Chumash,Tongva"
91403,"Sherman Oaks/Van Nuys",TRUE,-118.4571974,34.1423899,"Chumash,Tongva,Fernandeño Tataviam,Kizh","Chumash,Tongva"
91404,"Van Nuys",TRUE,-118.4486457,34.1826777,"Chumash,Tongva,Fernandeño Tataviam,Kizh","Chumash,Tongva"
91405,"Van Nuys",TRUE,-118.4571974,34.2037124,"Chumash,Tongva,Fernandeño Tataviam,Kizh","Chumash,Tongva"
91406,"Van Nuys",TRUE,-118.4980744,34.1985119,"Chumash,Tongva,Fernandeño Tataviam,Kizh","Chumash,Tongva"
91407,"Van Nuys",TRUE,-118.4486457,34.1826777,"Chumash,Tongva,Fernandeño Tataviam,Kizh","Chumash,Tongva"
91408,"Van Nuys",TRUE,-118.4486457,34.1826777,"Chumash,Tongva,Fernandeño Tataviam,Kizh","Chumash,Tongva"
91409,"Van Nuys",TRUE,-118.475058,34.2011137,"Chumash,Tongva,Fernandeño Tataviam,Kizh","Chumash,Tongva"
91410,"Van Nuys",FALSE,-118.47,34.2,"Chumash,Tongva,Fernandeño Tataviam,Kizh","Chumash,Tongva"
91411,"Van Nuys",TRUE,-118.4601175,34.1799855,"Chumash,Tongva,Fernandeño Tataviam,Kizh","Chumash,Tongva"
91412,"Panorama City",TRUE,-118.45,34.22,"Chumash,Tongva,Fernandeño Tataviam,Kizh","Chumash,Tongva"
91413,"Sherman Oaks",TRUE,-118.46,34.1599999,"Chumash,Tongva,Fernandeño Tataviam,Kizh","Chumash,Tongva"
91416,"Encino",FALSE,-118.52,34.18,"Chumash,Tongva,Fernandeño Tataviam,Kizh","Chumash,Tongva"
91423,"Sherman Oaks/Van Nuys",TRUE,-118.4338345,34.1482691,"Chumash,Tongva,Fernandeño Tataviam,Kizh","Chumash,Tongva"
91426,"Encino",FALSE,-118.5,34.1599999,"Chumash,Tongva,Fernandeño Tataviam,Kizh","Chumash,Tongva"
91436,"Encino",TRUE,-118.4922355,34.1540054,"Chumash,Tongva,Fernandeño Tataviam,Kizh","Chumash,Tongva"
91501,"Burbank",FALSE,-118.2935891,34.2039087,"Chumash,Tongva,Fernandeño Tataviam,Kizh","Tongva"
91502,"Burbank",FALSE,-118.3082034,34.1772371,"Chumash,Tongva,Fernandeño Tataviam,Kizh","Tongva"
91503,"Burbank",FALSE,-118.3489963,34.1872813,"Chumash,Tongva,Fernandeño Tataviam,Kizh","Chumash,Tongva"
91504,"Burbank (Glenoaks)",FALSE,-118.3286614,34.2053511,"Chumash,Tongva,Fernandeño Tataviam,Kizh","Tongva"
91505,"Burbank",FALSE,-118.3403506,34.1615135,"Chumash,Tongva,Fernandeño Tataviam,Kizh","Tongva"
91506,"Burbank",FALSE,-118.325739,34.1728461,"Chumash,Tongva,Fernandeño Tataviam,Kizh","Tongva"
91507,"Burbank",FALSE,-118.3499537,34.1699956,"Chumash,Tongva,Fernandeño Tataviam,Kizh","Tongva"
91508,"Burbank",FALSE,-118.3299925,34.189976,"Chumash,Tongva,Fernandeño Tataviam,Kizh","Tongva"
91510,"Burbank (Woodbury Univ.)",FALSE,-118.35,34.19,"Chumash,Tongva,Fernandeño Tataviam,Kizh","Chumash,Tongva"
91521,"Burbank",FALSE,-118.3246431,34.1568172,"Chumash,Tongva,Fernandeño Tataviam,Kizh","Tongva"
91522,"Burbank",FALSE,-118.3407158,34.1483152,"Chumash,Tongva,Fernandeño Tataviam,Kizh","Tongva"
91523,"Burbank",FALSE,-118.3337755,34.1548495,"Chumash,Tongva,Fernandeño Tataviam,Kizh","Tongva"
91601,"North Hollywood",TRUE,-118.3637264,34.1658804,"Chumash,Tongva,Fernandeño Tataviam,Kizh","Chumash,Tongva"
91602,"North Hollywood/Toluca Lake",TRUE,-118.3608046,34.1487141,"Chumash,Tongva,Fernandeño Tataviam,Kizh","Tongva"
91603,"North Hollywood",TRUE,-118.3777395,34.1680031,"Chumash,Tongva,Fernandeño Tataviam,Kizh","Chumash,Tongva"
91604,"North Hollywood/Studio City",TRUE,-118.3987842,34.1366259,"Chumash,Tongva,Fernandeño Tataviam,Kizh","Chumash,Tongva"
91605,"North Hollywood",FALSE,-118.3987842,34.208195,"Chumash,Tongva,Fernandeño Tataviam,Kizh","Chumash,Tongva"
91606,"North Hollywood",FALSE,-118.3900204,34.1873985,"Chumash,Tongva,Fernandeño Tataviam,Kizh","Chumash,Tongva"
91607,"North Hollywood/Valley Village",TRUE,-118.3987842,34.167305,"Chumash,Tongva,Fernandeño Tataviam,Kizh","Chumash,Tongva"
91608,"Universal City",FALSE,-118.3519973,34.1361007,"Chumash,Tongva,Kizh","Tongva"
91609,"North Hollywood",TRUE,-118.3878446,34.1893,"Chumash,Tongva,Fernandeño Tataviam,Kizh","Chumash,Tongva"
91610,"Toluca Lake",FALSE,-118.3798111,34.1599948,"Chumash,Tongva,Fernandeño Tataviam,Kizh","Chumash,Tongva"
91614,"Studio City",FALSE,-118.4,34.15,"Chumash,Tongva,Fernandeño Tataviam,Kizh","Chumash,Tongva"
91615,"North Hollywood",FALSE,-118.4,34.2,"Chumash,Tongva,Fernandeño Tataviam,Kizh","Chumash,Tongva"
91616,"North Hollywood",FALSE,-118.4,34.18,"Chumash,Tongva,Fernandeño Tataviam,Kizh","Chumash,Tongva"
91617,"Valley Village",FALSE,-118.4,34.1599999,"Chumash,Tongva,Fernandeño Tataviam,Kizh","Chumash,Tongva"
91618,"North Hollywood",FALSE,-118.35,34.14,"Chumash,Tongva,Kizh","Tongva"
91702,"Azusa",FALSE,-117.8545867,34.2667473,"Tongva,Kizh","Tataviam,Tongva"
91706,"Baldwin Park/Irwindale",FALSE,-117.9834738,34.0812006,"Tongva,Kizh","Tongva"
91709,"Chino Hills",FALSE,-117.7256083,33.959453,"Tongva,Kizh","Tongva"
91710,"Chino",FALSE,-117.6786847,34.0120229,"Tongva,Kizh","Tongva"
91711,"Claremont",FALSE,-117.702148,34.1707374,"Tongva,Kizh","Tongva"
91714,"City Of Industry",FALSE,-117.96,34.02,"Tongva,Kizh","Tongva"
91715,"City Of Industry",FALSE,-117.9703455,34.0153681,"Tongva,Kizh","Tongva"
91716,"City Of Industry",FALSE,-117.96,34.02,"Tongva,Kizh","Tongva"
91722,"Covina",FALSE,-117.9073244,34.0948204,"Tongva,Kizh","Tongva"
91723,"Covina",FALSE,-117.8868171,34.0870296,"Tongva,Kizh","Tongva"
91724,"Covina",FALSE,-117.8604472,34.0858034,"Tongva,Kizh","Tongva"
91731,"El Monte",FALSE,-118.0361736,34.0835771,"Tongva,Kizh","Tongva"
91732,"El Monte",FALSE,-118.0127534,34.0791053,"Tongva,Kizh","Tongva"
91733,"South El Monte",FALSE,-118.0478826,34.0499095,"Tongva,Kizh","Tongva"
91734,"El Monte",FALSE,-118.0341611,34.0749394,"Tongva,Kizh","Tongva"
91740,"Glendora",FALSE,-117.848726,34.1194758,"Tongva,Kizh","Tongva"
91741,"Glendora",FALSE,-117.8428651,34.1568319,"Tongva,Kizh","Tongva"
91744,"Cityof Industry/La Puente/Valinda",FALSE,-117.9307584,34.0274622,"Tongva,Kizh","Tongva"
91745,"La Puente (Hacienda Heights)",FALSE,-117.9834738,33.9990858,"Tongva,Kizh","Tongva"
91746,"Bassett/City of Industry/La Puente",FALSE,-117.9893301,34.0541034,"Tongva,Kizh","Tongva"
91747,"La Puente",FALSE,-117.9519585,34.0373357,"Tongva,Kizh","Tongva"
91748,"Rowland Heights",FALSE,-117.8897468,33.9810337,"Tongva,Kizh","Tongva"
91749,"La Puente",FALSE,-117.956279,34.0218507,"Tongva,Kizh","Tongva"
91750,"La Verne",FALSE,-117.77252,34.1945949,"Tongva,Kizh","Tongva"
91754,"Monterey Park",FALSE,-118.1415261,34.0472318,"Chumash,Tongva,Kizh","Tongva"
91755,"Monterey Park",FALSE,-118.1181199,34.0427819,"Chumash,Tongva,Kizh","Tongva"
91759,"Mt Baldy",FALSE,-117.7138785,34.2602336,"Tongva,Kizh","Tongva"
91765,"Diamond Bar",FALSE,-117.8135579,33.9945546,"Tongva,Kizh","Tongva"
91766,"Phillips Ranch/Pomona",FALSE,-117.7549295,34.0397162,"Tongva,Kizh","Tongva"
91767,"Pomona",FALSE,-117.7432015,34.0836851,"Tongva,Kizh","Tongva"
91768,"Pomona",FALSE,-117.7783831,34.0648167,"Tongva,Kizh","Tongva"
91769,"Pomona",FALSE,-117.758368,34.0602708,"Tongva,Kizh","Tongva"
91770,"Rosemead",FALSE,-118.0830047,34.0617365,"Tongva,Kizh","Tongva"
91773,"San Dimas",FALSE,-117.8194197,34.1009953,"Tongva,Kizh","Tongva"
91775,"San Gabriel",FALSE,-118.0830047,34.1232517,"Tongva,Kizh","Tongva"
91776,"San Gabriel",FALSE,-118.0947106,34.0895991,"Tongva,Kizh","Tongva"
91778,"San Gabriel",FALSE,-118.0995912,34.1023978,"Tongva,Kizh","Tongva"
91780,"Temple City",FALSE,-118.0595907,34.0982956,"Tongva,Kizh","Tongva"
91788,"Walnut",FALSE,-117.8640942,34.0158944,"Tongva,Kizh","Tongva"
91789,"Diamond Bar/City of Industry/Walnut",FALSE,-117.8428651,34.0130769,"Tongva,Kizh","Tongva"
91790,"West Covina",FALSE,-117.9424743,34.0656464,"Tongva,Kizh","Tongva"
91791,"West Covina",FALSE,-117.8956062,34.0566376,"Tongva,Kizh","Tongva"
91792,"West Covina",FALSE,-117.9073244,34.0332214,"Tongva,Kizh","Tongva"
91793,"West Covina",FALSE,-117.9281954,34.068839,"Tongva,Kizh","Tongva"
91801,"Alhambra",FALSE,-118.1181199,34.0837958,"Tongva,Kizh","Tongva"
91802,"Alhambra",FALSE,-118.1256175,34.0923467,"Tongva,Kizh","Tongva"
91803,"Alhambra",FALSE,-118.1415261,34.0779881,"Chumash,Tongva,Kizh","Tongva"
91804,"Alhambra",FALSE,-118.13,34.1,"Tongva,Kizh","Tongva"
91896,"Alhambra",FALSE,-118.12,34.09,"Tongva,Kizh","Tongva"
91899,"Alhambra",FALSE,-118.12,34.09,"Tongva,Kizh","Tongva"
92397,"Wrightwood",FALSE,-117.6552185,34.3668408,"Tongva,Yuhaviatam/Maarenga’yam (Serrano),Kizh","Serrano,Tongva"
92821,"Brea X",FALSE,-117.8604472,33.9316733,"Tongva,Acjachemen (Juaneño),Kizh","Tongva"
92823,"Brea X",FALSE,-117.8018337,33.9254328,"Tongva,Acjachemen (Juaneño),Kizh","Tongva"
93243,"Lebec",FALSE,-118.8363756,34.7936796,"Chumash","Chumash"
93510,"Acton",FALSE,-118.2292712,34.4600722,"Fernandeño Tataviam","Tataviam"
93523,"Edwards AFB",FALSE,-117.8545867,34.9609579,"Kitanemuk","Kitanemuk"
93532,"Elizabeth Lake/Lake Hughes",FALSE,-118.4531942,34.676617,"Yuhaviatam/Maarenga’yam (Serrano),Fernandeño Tataviam","Serrano,Tataviam"
93534,"Lancaster",FALSE,-118.1473771,34.6946278,"Yuhaviatam/Maarenga’yam (Serrano),Fernandeño Tataviam","Serrano,Tataviam"
93535,"Hi Vista",FALSE,-117.8780275,34.7311394,"Yuhaviatam/Maarenga’yam (Serrano)","Kitanemuk,Serrano"
93536,"Lancaster/Quartz Hill",FALSE,-118.2526623,34.7190908,"Yuhaviatam/Maarenga’yam (Serrano),Fernandeño Tataviam","Serrano,Tataviam"
93539,"Lancaster",FALSE,-118.1656706,34.6824502,"Yuhaviatam/Maarenga’yam (Serrano),Fernandeño Tataviam","Serrano,Tataviam"
93543,"Littlerock/Juniper Hills",FALSE,-117.9600466,34.4965114,"Yuhaviatam/Maarenga’yam (Serrano),Fernandeño Tataviam","Serrano,Tataviam"
93544,"Llano",FALSE,-117.7607932,34.494562,"Yuhaviatam/Maarenga’yam (Serrano),Fernandeño Tataviam","Kitanemuk,Serrano"
93550,"Palmdale/Lake Los Angeles",FALSE,-118.0654445,34.3579404,"Tongva,Fernandeño Tataviam,Kizh","Tataviam,Tongva"
93551,"Palmdale",FALSE,-118.1824793,34.594158,"Yuhaviatam/Maarenga’yam (Serrano),Fernandeño Tataviam","Serrano,Tataviam"
93552,"Palmdale",FALSE,-118.0303189,34.5811542,"Yuhaviatam/Maarenga’yam (Serrano),Fernandeño Tataviam","Serrano,Tataviam"
93553,"Pearblossom",FALSE,-117.9014654,34.3780816,"Tongva,Fernandeño Tataviam,Kizh","Tataviam,Tongva"
93560,"Rosamond",FALSE,-118.3228165,34.8843005,"Kitanemuk",""
93563,"Valyermo",FALSE,-117.7490656,34.4053384,"Tongva,Yuhaviatam/Maarenga’yam (Serrano),Kizh","Serrano,Tongva"
93584,"Lancaster",FALSE,-118.14,34.7,"Yuhaviatam/Maarenga’yam (Serrano),Fernandeño Tataviam","Serrano,Tataviam"
93586,"Lancaster",FALSE,110.3390732,1.5425869,"",""
93590,"Palmdale",FALSE,-118.06,34.5,"Yuhaviatam/Maarenga’yam (Serrano),Fernandeño Tataviam","Serrano,Tataviam"
93591,"Palmdale/Lake Los Angeles",FALSE,-117.8194197,34.5925622,"Yuhaviatam/Maarenga’yam (Serrano),Fernandeño Tataviam","Kitanemuk,Serrano"
