"zip","area_name","LA_city","lon","lat"
"90001","Florence/South Central",TRUE,-118.2468148,33.9697897
"90002","Watts",TRUE,-118.2497386,33.9511133
"90003","South Central",TRUE,-118.2731269,33.9657994
"90004","Hancock Park",TRUE,-118.3082034,34.0748887
"90005","Koreatown",TRUE,-118.3096648,34.0578814
"90006","Pico Heights",TRUE,-118.2965121,34.0470832
"90007","South Central",TRUE,-118.2848199,34.0295114
"90008","Baldwin Hills/Crenshaw/Leimert Park",TRUE,-118.3491169,34.0083231
"90009","Airport Worldway",TRUE,-118.3869165,33.9532336
"90010","Wilshire Blvd",TRUE,-118.3089341,34.0625448
"90011","South Central",TRUE,-118.2585096,34.007889
"90012","Civic Center/Chinatown",TRUE,-118.243891,34.0653347
"90013","Downtown Los Angeles",TRUE,-118.2405557,34.0445905
"90014","Los Angeles",FALSE,-118.2519314,34.0434783
"90015","Downtown Los Angeles",TRUE,-118.2672801,34.0390107
"90016","West Adams",TRUE,-118.3520389,34.0255188
"90017","Downtown Los Angeles",TRUE,-118.2672801,34.0543797
"90018","Jefferson Park",TRUE,-118.319894,34.0309972
"90019","Country Club Park/Mid City",TRUE,-118.3403506,34.0489277
"90020","Hancock Park",TRUE,-118.3096648,34.0655627
"90021","Downtown Los Angeles",TRUE,-118.2380432,34.0309258
"90022","East Los Angeles",FALSE,-118.153228,34.0238187
"90023","East Los Angeles",TRUE,-118.2000277,34.0224471
"90024","Westwood",TRUE,-118.4367551,34.0631451
"90025","Sawtelle/West Los Angeles",TRUE,-118.4484367,34.0448583
"90026","Echo Park/Silverlake",TRUE,-118.2585096,34.0796167
"90027","Griffith Park/Los Feliz",TRUE,-118.2935891,34.1220545
"90028","Hollywood",TRUE,-118.325739,34.1012181
"90029","Downtown Los Angeles",TRUE,-118.2965121,34.0880507
"90030","Terminal Annex",TRUE,-118.24,34.06
"90031","Montecito Heights",TRUE,-118.2117257,34.081032
"90032","El Sereno/Monterey Hills",TRUE,-118.1766294,34.0795169
"90033","Boyle Heights",TRUE,-118.2117257,34.0502898
"90034","Palms",TRUE,-118.395863,34.0324632
"90035","West Fairfax",TRUE,-118.3841777,34.050751
"90036","Park La Brea",TRUE,-118.3520389,34.0664817
"90037","South Central",TRUE,-118.2818967,34.002058
"90038","Hollywood",TRUE,-118.3315838,34.0895186
"90039","Atwater Village",TRUE,-118.2585096,34.1103407
"90040","Commerce, City of",FALSE,-118.153228,33.9930471
"90041","Eagle Rock",TRUE,-118.2117257,34.1322469
"90042","Highland Park",TRUE,-118.188329,34.1175895
"90043","Hyde Park/View Park/Windsor Hills",TRUE,-118.3286614,33.9903827
"90044","Athens",FALSE,-118.2935891,33.9478802
"90045","LAX Area/Westchester",TRUE,-118.3875775,33.9516114
"90046","Mount Olympus",TRUE,-118.3637264,34.1147313
"90047","South Central",TRUE,-118.3082034,33.9519253
"90048","West Beverly",TRUE,-118.3724915,34.0741548
"90049","Bel Air Estates/Brentwood",TRUE,-118.4980744,34.0963058
"90050","Los Angeles",FALSE,-118.2036321,34.1206108
"90051","Los Angeles",FALSE,-118.25,33.95
"90052","Los Angeles",FALSE,-118.2592405,33.9788726
"90053","Los Angeles",FALSE,-118.2399854,34.0499892
"90054","Los Angeles",FALSE,-118.24,34.06
"90055","Los Angeles",FALSE,-118.2584017,34.038371
"90056","Ladera Heights",TRUE,-118.3666482,33.9885683
"90057","Westlake",TRUE,-118.2789735,34.0617061
"90058","Vernon",FALSE,-118.2234229,34.0063747
"90059","Watts/Willowbrook",TRUE,-118.2468148,33.9287591
"90060","Los Angeles",FALSE,-118.24,34.06
"90061","South Central",TRUE,-118.2731269,33.9196443
"90062","South Central",TRUE,-118.3082034,34.0031792
"90063","City Terrace",FALSE,-118.1854042,34.0440239
"90064","Cheviot Hills/Rancho Park",TRUE,-118.4221519,34.0386656
"90065","Cypress Park/Glassell Park/Mt. Washin",TRUE,-118.2234229,34.10885
"90066","Mar Vista",TRUE,-118.4338345,34.0050173
"90067","Century City",TRUE,-118.4148498,34.0571327
"90068","Hollywood",TRUE,-118.3286614,34.1235157
"90069","West Hollywood",FALSE,-118.3783347,34.0931603
"90070","Los Angeles",FALSE,-118.3101649,34.0598902
"90071","ARCO Towers",TRUE,-118.2548551,34.052996
"90072","Los Angeles",FALSE,-118.3092914,34.0965275
"90073","VA Hospital (Sawtelle)",FALSE,-118.452087,34.0522561
"90075","Los Angeles",FALSE,-118.3100196,34.059975
"90076","Los Angeles",FALSE,-118.3099973,34.0599809
"90077","Bel Air Estates & Beverly Glen",TRUE,-118.4571974,34.1014861
"90078","Los Angeles",FALSE,-118.3310632,34.0993907
"90079","Los Angeles",FALSE,-118.2554032,34.0405313
"90080","Airport Worldway",TRUE,NA,NA
"90081","Los Angeles",FALSE,-118.2511908,34.052984
"90082","Los Angeles",FALSE,-118.2798042,33.9999897
"90083","Los Angeles",FALSE,-118.4,33.95
"90086","Los Angeles",FALSE,-118.24,34.06
"90087","Los Angeles",FALSE,-118.24,34.06
"90089","USC",TRUE,-118.2892046,34.0220127
"90091","Los Angeles",FALSE,-118.1499982,33.9899979
"90093","Los Angeles",FALSE,-118.33,34.1
"90094","Playa Vista",FALSE,-118.4177707,33.9744806
"90095","Los Angeles",FALSE,-118.4440562,34.070264
"90099","Los Angeles",FALSE,-118.24,34.06
"90201","Bell/Bell Gardens/Cudahy",FALSE,-118.1766294,33.9667212
"90202","Bell Gardens",FALSE,-118.19,33.9799999
"90209","Beverly Hills",FALSE,-118.389995,34.0699904
"90210","Beverly Hills/Beverly Glen",TRUE,-118.4069666,34.0683231
"90211","Beverly Hills",FALSE,-118.3841777,34.0661071
"90212","Beverly Hills",FALSE,-118.4017053,34.0617109
"90213","Beverly Hills",FALSE,-118.3997374,34.0695104
"90220","Compton/Rancho Dominguez",FALSE,-118.2351192,33.8803536
"90221","East Rancho Dominguez",FALSE,-118.2000277,33.8890686
"90222","Compton/Rosewood/Willowbrook",FALSE,-118.2351192,33.9111458
"90223","Compton",FALSE,-118.2199049,33.89989
"90224","Compton",FALSE,-118.22,33.89
"90230","Culver City",FALSE,-118.3987842,33.9933257
"90231","Culver City",FALSE,-118.39,34
"90232","Culver City",FALSE,-118.3900204,34.0236878
"90233","Culver City",FALSE,-118.3899667,33.9799584
"90239","Downey",FALSE,-118.13,33.94
"90240","Downey",FALSE,-118.1210458,33.9574105
"90241","Downey",FALSE,-118.1298234,33.9372725
"90242","Downey",FALSE,-118.1298234,33.9167378
"90245","El Segundo",FALSE,-118.4046264,33.9150066
"90247","Gardena",FALSE,-118.2935891,33.8863314
"90248","Gardena",FALSE,-118.2935891,33.8658064
"90249","Gardena",FALSE,-118.3169714,33.901022
"90250","Hawthorne (Holly Park)",FALSE,-118.3520389,33.9127807
"90251","Hawthorne",FALSE,-118.35,33.92
"90254","Hermosa Beach",FALSE,-118.3987842,33.8600693
"90255","Huntington Park/Walnut Park",FALSE,-118.2234229,33.9756107
"90260","Lawndale",FALSE,-118.3520389,33.8922687
"90261","Lawndale (Federal Bldg)",FALSE,-118.3776043,33.8954945
"90262","Lynwood",FALSE,-118.2000277,33.9198647
"90263","Pepperdine University (Malibu)",FALSE,-118.7037647,34.0327657
"90264","Malibu",FALSE,-118.6941818,34.0349051
"90265","Malibu",FALSE,-118.8363756,34.0615492
"90266","Manhattan Beach",FALSE,-118.3987842,33.8908371
"90267","Manhattan Beach",FALSE,-118.41,33.88
"90270","Maywood",FALSE,-118.1854042,33.9876248
"90272","Castellemare/Pacific Highlands/Pacifi",TRUE,-118.5447787,34.0845245
"90274","Palos Verdes Estates/Rolling Hills/Rolling Hills Estates",FALSE,-118.3520389,33.7793751
"90275","Rancho Palos Verdes",FALSE,-118.3637264,33.7456493
"90277","Redondo Beach/Torrance",FALSE,-118.3870991,33.8322129
"90278","Redondo Beach/Torrance",FALSE,-118.3754131,33.865913
"90280","South Gate",FALSE,-118.188329,33.9432948
"90290","Topanga",FALSE,-118.61481,34.1076983
"90291","Venice",TRUE,-118.4688776,33.9962144
"90292","Marina del Rey",FALSE,-118.4571974,33.9684276
"90293","Playa del Rey",TRUE,-118.4455164,33.9508728
"90294","Venice",TRUE,-118.46,33.99
"90295","Marina del Rey",FALSE,-118.4499975,33.979998
"90296","Playa Del Rey",FALSE,-118.44,33.95
"90301","Inglewood",FALSE,-118.3520389,33.9537917
"90302","Inglewood",FALSE,-118.3520389,33.9742906
"90303","Inglewood",FALSE,-118.3315838,33.9358352
"90304","Lennox",FALSE,-118.3608046,33.9387862
"90305","Inglewood",FALSE,-118.3286614,33.9596334
"90306","Inglewood",FALSE,-118.3499862,33.9599711
"90307","Inglewood",FALSE,-118.35,33.96
"90308","Inglewood",FALSE,-118.35,33.96
"90309","Inglewood",FALSE,-118.36,33.97
"90310","Inglewood",FALSE,-118.32,33.93
"90311","Inglewood",FALSE,-118.35,33.96
"90312","Inglewood",FALSE,-118.349893,33.9600199
"90401","Santa Monica",FALSE,-118.495155,34.0126379
"90402","Santa Monica",FALSE,-118.5068325,34.0352816
"90403","Santa Monica",FALSE,-118.495155,34.0279895
"90404","Santa Monica",FALSE,-118.4717975,34.02875
"90405","Santa Monica",FALSE,-118.4659576,34.009746
"90406","Santa Monica",FALSE,-118.5000014,34.0199977
"90407","Santa Monica",FALSE,-118.5,34.02
"90408","Santa Monica",FALSE,-118.4903818,34.0258537
"90409","Santa Monica",FALSE,-118.48,34
"90410","Santa Monica",FALSE,-118.5,34.02
"90411","Santa Monica",FALSE,-118.5,34.02
"90501","Torrance",FALSE,-118.3169714,33.8291867
"90502","Torrance",FALSE,-118.2906661,33.8331717
"90503","Torrance",FALSE,-118.3520389,33.8409696
"90504","Torrance",FALSE,-118.3286614,33.8673266
"90505","Torrance",FALSE,-118.3520389,33.8101772
"90506","Torrance (Camino College)",FALSE,-118.329392,33.8844585
"90507","Torrance",FALSE,-118.31,33.83
"90508","Torrance",FALSE,-118.31,33.83
"90509","Torrance",FALSE,-118.33,33.83
"90510","Torrance",FALSE,-118.328528,33.827044
"90601","Whittier",FALSE,-118.0303189,34.0080684
"90602","Whittier",FALSE,-118.0215363,33.9717336
"90603","Whittier",FALSE,-117.9931472,33.9443011
"90604","Whittier",FALSE,-118.0244639,33.9324943
"90605","Whittier/South Whittier",FALSE,-118.0273914,33.9548846
"90606","Los Nietos",FALSE,-118.0712981,33.9722831
"90607","Whittier",FALSE,-118.02,33.96
"90608","Whittier (Whittier College)",FALSE,-118.035064,33.9807825
"90609","Whittwood (Whittier)",FALSE,-118.03,33.9799999
"90610","Los Nietos (Whittier)",FALSE,-118.07,33.97
"90623","La Palma",FALSE,-118.0449554,33.8477954
"90630","Cypress",FALSE,-118.0361736,33.816539
"90631","La Habra Heights",FALSE,-117.9600466,33.9226618
"90637","La Mirada",FALSE,-118.0037566,33.8957
"90638","La Mirada",FALSE,-118.0127534,33.9045543
"90639","La Mirada (Biola Univ.)",FALSE,-118.0179682,33.9052822
"90640","Montebello",FALSE,-118.1064156,34.0149091
"90650","Norwalk",FALSE,-118.0830047,33.9077751
"90651","Norwalk",FALSE,-118.0784449,33.9045574
"90651","Norwalk",FALSE,-118.0784449,33.9045574
"90652","Norwalk",FALSE,-118.0784449,33.9045574
"90660","Pico Rivera",FALSE,-118.0947106,33.9870228
"90661","Pico Rivera",FALSE,-118.0857083,33.9859405
"90662","Pico Rivera",FALSE,-118.0857083,33.9859405
"90670","Santa Fe Springs",FALSE,-118.0712981,33.9414796
"90671","Santa Fe Springs",FALSE,-118.08,33.95
"90701","Cerritos",FALSE,-118.0800782,33.8648303
"90702","Artesia",FALSE,-118.0838799,33.8657838
"90703","Cerritos",FALSE,-118.0595907,33.8724552
"90704","Avalon",FALSE,-118.4396756,33.3614631
"90706","Bellflower",FALSE,-118.1239717,33.8822393
"90707","Bellflower",FALSE,-118.1243793,33.8821364
"90710","Harbor City",TRUE,-118.2965121,33.7957752
"90711","Lakewood",FALSE,-118.1330353,33.8522282
"90712","Lakewood",FALSE,-118.153228,33.8493162
"90713","Lakewood",FALSE,-118.1181199,33.8477257
"90714","Lakewood",FALSE,-118.1330353,33.8522282
"90715","Lakewood",FALSE,-118.0783974,33.8413324
"90716","Hawaiian Gardens",FALSE,-118.0742249,33.830298
"90717","Lomita/Rancho Palos Verdes",FALSE,-118.319894,33.7950887
"90723","Paramount",FALSE,-118.1649291,33.8977737
"90731","San Pedro/Terminal Island",TRUE,-118.2643567,33.7241323
"90732","Rancho Palos Verdes",FALSE,-118.3140488,33.7349075
"90733","San Pedro",TRUE,-118.2805078,33.7367479
"90734","San Pedro",FALSE,-118.2922222,33.7358333
"90744","Wilmington",TRUE,-118.2643567,33.7857948
"90745","Carson",FALSE,-118.2585096,33.8232001
"90746","Carson",FALSE,-118.2585096,33.8540061
"90747","Carson (Cal State Univ. Dominguez Hills)",FALSE,-118.2558801,33.8641714
"90748","Wilmington",TRUE,-118.2626058,33.7830899
"90749","Carson",FALSE,-118.26,33.83
"90755","Signal Hill",FALSE,-118.1678543,33.8020217
"90801","Long Beach",FALSE,-118.187732,33.7705139
"90802","Long Beach",FALSE,-118.1941785,33.7415317
"90803","Long Beach",FALSE,-118.1298234,33.7523035
"90804","Long Beach",FALSE,-118.1503026,33.7806646
"90805","North Long Beach (Long Beach)",FALSE,-118.1766294,33.8640647
"90806","Long Beach",FALSE,-118.1912538,33.8065036
"90807","Long Beach",FALSE,-118.1766294,33.8332465
"90808","Long Beach",FALSE,-118.1064156,33.8197825
"90809","Long Beach",FALSE,-118.1495712,33.798194
"90810","Carson/Long Beach",FALSE,-118.2234229,33.8113701
"90813","Long Beach",FALSE,-118.1971031,33.7844997
"90814","Long Beach",FALSE,-118.1429889,33.7709051
"90815","Long Beach",FALSE,-118.1181199,33.7963296
"90822","Long Beach",FALSE,-118.1495712,33.8084732
"90831","Long Beach (World Trade Center)",FALSE,-118.2022212,33.7684556
"90832","Long Beach (World Trade Center)",FALSE,-118.1999698,33.7699125
"90833","Long Beach",FALSE,-118.1994298,33.7679552
"90834","Long Beach",FALSE,-118.1991138,33.7674587
"90835","Long Beach",FALSE,-118.1994298,33.767963
"90840","Long Beach (Cal State University Long Beach)",FALSE,-118.1206801,33.7838081
"90846","Long Beach (Boeing)",FALSE,-118.145183,33.8301142
"90853","Belmont Shores (Long Beach)",FALSE,-118.1291576,33.7591962
"91001","Altadena",FALSE,-118.1239717,34.2103962
"91003","Altadena",FALSE,-118.13,34.19
"91006","Arcadia",FALSE,-118.0244639,34.1172361
"91007","Arcadia",FALSE,-118.0478826,34.1216975
"91008","Duarte",FALSE,-117.9659037,34.1624549
"91009","Duarte",FALSE,-117.9792387,34.1397138
"91010","Bradbury",FALSE,-117.9424743,34.1579788
"91011","La Canada-Flintridge",FALSE,-118.1941785,34.2133926
"91012","La Canada-Flintridge",FALSE,-118.22,34.21
"91016","Monrovia",FALSE,-118.0068979,34.1574588
"91017","Monrovia",FALSE,-118,34.15
"91020","Montrose",FALSE,-118.2321952,34.2115828
"91021","Montrose",FALSE,-118.22,34.21
"91023","Mount Wilson",FALSE,-118.0676991,34.2276262
"91024","Sierra Madre",FALSE,-118.0478826,34.1934312
"91025","Sierra Madre",FALSE,-118.05,34.1599999
"91030","South Pasadena",FALSE,-118.153228,34.1058277
"91031","South Pasadena",FALSE,-118.15,34.12
"91040","Shadow Hills/Sunland",TRUE,-118.3111262,34.2864053
"91041","Sunland",TRUE,-118.3,34.27
"91042","Tujunga",TRUE,-118.2292712,34.296676
"91043","Tujunga",TRUE,-118.2899871,34.2499923
"91046","Glendale (Verdugo City)",FALSE,-118.240734,34.211442
"91066","Arcadia",FALSE,-118.03,34.14
"91077","Arcadia",FALSE,-118.05,34.13
"91101","Pasadena",FALSE,-118.1386005,34.1427587
"91102","Pasadena",FALSE,-118.1419472,34.1485194
"91103","Pasadena",FALSE,-118.153228,34.1672881
"91104","Pasadena",FALSE,-118.1181199,34.1657707
"91105","Pasadena",FALSE,-118.1678543,34.1406082
"91106","Pasadena",FALSE,-118.1268976,34.1456654
"91107","Pasadena",FALSE,-118.0830047,34.1642396
"91108","San Marino",FALSE,-118.1181199,34.1247921
"91109","Pasadena",FALSE,-118.1528623,34.1561783
"91114","Pasadena",FALSE,-118.13,34.17
"91115","Pasadena",FALSE,-118.15,34.14
"91116","Pasadena",FALSE,-118.1296057,34.1500196
"91117","Pasadena",FALSE,-118.099449,34.149491
"91118","San Marino",FALSE,-118.11,34.12
"91125","Pasadena (California Institute of Technology)",FALSE,-118.1247032,34.1378866
"91125","Pasadena (California Institute of Technology)",FALSE,-118.1247032,34.1378866
"91126","Pasadena (California Institute of Technology)",FALSE,-118.1242089,34.1359544
"91126","Pasadena (California Institute of Technology)",FALSE,-118.1242089,34.1359544
"91201","Glendale",FALSE,-118.2935891,34.1629905
"91202","Glendale",FALSE,-118.2702036,34.1688371
"91203","Glendale",FALSE,-118.2614332,34.1531191
"91204","Glendale (Tropico)",FALSE,-118.2614332,34.1377656
"91205","Glendale (Tropico)",FALSE,-118.2468148,34.1337367
"91206","Glendale",FALSE,-118.2117257,34.1527251
"91207","Glendale",FALSE,-118.2702036,34.1893001
"91208","Glendale",FALSE,-118.2351192,34.1980641
"91209","Glendale",FALSE,-118.2518395,34.1464871
"91210","Galleria (Glendale)",FALSE,-118.2563169,34.144801
"91214","La Crescenta",FALSE,-118.2351192,34.2389818
"91221","Glendale",FALSE,-118.29,34.1599999
"91222","Glendale",FALSE,-118.26,34.1599999
"91224","Glendale",FALSE,-118.25,34.2299999
"91225","Glendale",FALSE,-118.25,34.14
"91226","Glendale",FALSE,-118.2499954,34.1399918
"91301","Agoura/Oak Park",FALSE,-118.754782,34.1129907
"91302","Calabasas/Hidden Hills",FALSE,-118.6848112,34.1307949
"91303","Canoga Park",TRUE,-118.597305,34.1989453
"91304","Canoga Park",TRUE,-118.6556478,34.2249609
"91305","Canoga Park",TRUE,-118.599807,34.1998644
"91306","Winnetka",TRUE,-118.5739621,34.2048586
"91307","West Hills",TRUE,-118.6848112,34.2124444
"91308","West Hills",FALSE,-118.64,34.2
"91309","Canoga Park",FALSE,-118.6,34.22
"91310","Castaic",FALSE,-118.62,34.49
"91311","Chatsworth",TRUE,-118.61481,34.2710376
"91313","Chatsworth",FALSE,-118.6,34.26
"91316","Encino",TRUE,-118.5155901,34.1583323
"91321","Santa Clarita (Newhall)",FALSE,-118.4747173,34.3677169
"91322","Newhall",FALSE,-118.5473013,34.3792628
"91324","Northridge",TRUE,-118.5506158,34.2413938
"91325","Northridge",TRUE,-118.5155901,34.2400436
"91326","Porter Ranch",TRUE,-118.5622893,34.2894584
"91327","Northridge",FALSE,-118.54,34.27
"91328","Northridge",FALSE,-118.54,34.24
"91330","Northridge, California State University",TRUE,-118.5258067,34.2489458
"91330","Northridge, California State University",TRUE,-118.5258067,34.2489458
"91331","Arleta/Pacoima",TRUE,-118.4279933,34.2570374
"91331","Arleta/Pacoima",TRUE,-118.4279933,34.2570374
"91333","Pacoima",FALSE,-118.43,34.26
"91334","Pacoima",FALSE,-118.42,34.26
"91335","Reseda",TRUE,-118.5389414,34.2035088
"91337","Reseda",FALSE,-118.54,34.2
"91340","San Fernando",FALSE,-118.4338345,34.2913046
"91341","San Fernando",FALSE,-118.44,34.28
"91342","Lake View Terrace/Sylmar",TRUE,-118.3695699,34.3023759
"91343","North Hills",TRUE,-118.4805569,34.2386799
"91344","Granada Hills",TRUE,-118.4980744,34.2801972
"91345","Mission Hills",TRUE,-118.4571974,34.264995
"91346","Mission Hills",FALSE,-118.47,34.27
"91350","Agua Dulce/Saugus",FALSE,-118.5155901,34.4338228
"91351","Santa Clarita (Canyon Country)",FALSE,-118.4571974,34.4384112
"91352","Sun Valley",TRUE,-118.3520389,34.2301567
"91353","Sun Valley",FALSE,-118.37,34.22
"91354","Santa Clarita (Valencia)",FALSE,-118.5622893,34.4627169
"91355","Santa Clarita (Valencia)",FALSE,-118.5914696,34.4400287
"91356","Tarzana",TRUE,-118.5447787,34.1662848
"91357","Tarzana",FALSE,-118.55,34.17
"91361","Westlake Village",FALSE,-118.8946309,34.1384626
"91362","Westlake Village",FALSE,-118.824722,34.1971476
"91364","Woodland Hills",TRUE,-118.5914696,34.1544724
"91365","Woodland Hills",FALSE,-118.6095343,34.1693503
"91367","Woodland Hills",TRUE,-118.597305,34.1785255
"91372","Calabasas",FALSE,-118.64,34.15
"91376","Agoura Hills",FALSE,-118.74,34.14
"91380","Santa Clarita",FALSE,-118.4,34.5
"91381","Stevenson Ranch",FALSE,-118.61481,34.3729805
"91382","Santa Clarita",FALSE,-118.54,34.39
"91383","Santa Clarita",FALSE,-118.64,34.43
"91384","Castaic",FALSE,-118.6964752,34.5455162
"91385","Valencia",FALSE,-118.56,34.39
"91386","Canyon Country",FALSE,-118.45,34.42
"91387","Canyon Country",FALSE,-118.4163103,34.413057
"91390","Santa Clarita",FALSE,-118.3346172,34.4964601
"91392","Sylmar",FALSE,-118.45,34.31
"91393","North Hills",FALSE,-118.28,34.1599999
"91394","Granada Hills",FALSE,-118.52,34.26
"91395","Mission Hills",FALSE,-118.47,34.26
"91396","Winnetka",FALSE,-118.57,34.21
"91401","Van Nuys",TRUE,-118.4338345,34.1789379
"91402","Panorama City",TRUE,-118.442596,34.2252697
"91403","Sherman Oaks/Van Nuys",TRUE,-118.4571974,34.1423899
"91404","Van Nuys",TRUE,-118.4486457,34.1826777
"91405","Van Nuys",TRUE,-118.4571974,34.2037124
"91406","Van Nuys",TRUE,-118.4980744,34.1985119
"91407","Van Nuys",TRUE,-118.4486457,34.1826777
"91408","Van Nuys",TRUE,-118.4486457,34.1826777
"91409","Van Nuys",TRUE,-118.475058,34.2011137
"91410","Van Nuys",FALSE,-118.47,34.2
"91411","Van Nuys",TRUE,-118.4601175,34.1799855
"91412","Panorama City",TRUE,-118.45,34.22
"91413","Sherman Oaks",TRUE,-118.46,34.1599999
"91416","Encino",FALSE,-118.52,34.18
"91423","Sherman Oaks/Van Nuys",TRUE,-118.4338345,34.1482691
"91426","Encino",FALSE,-118.5,34.1599999
"91436","Encino",TRUE,-118.4922355,34.1540054
"91501","Burbank",FALSE,-118.2935891,34.2039087
"91502","Burbank",FALSE,-118.3082034,34.1772371
"91503","Burbank",FALSE,-118.3489963,34.1872813
"91504","Burbank (Glenoaks)",FALSE,-118.3286614,34.2053511
"91505","Burbank",FALSE,-118.3403506,34.1615135
"91506","Burbank",FALSE,-118.325739,34.1728461
"91507","Burbank",FALSE,-118.3499537,34.1699956
"91508","Burbank",FALSE,-118.3299925,34.189976
"91510","Burbank (Woodbury Univ.)",FALSE,-118.35,34.19
"91521","Burbank",FALSE,-118.3246431,34.1568172
"91522","Burbank",FALSE,-118.3407158,34.1483152
"91523","Burbank",FALSE,-118.3337755,34.1548495
"91601","North Hollywood",TRUE,-118.3637264,34.1658804
"91602","North Hollywood/Toluca Lake",TRUE,-118.3608046,34.1487141
"91603","North Hollywood",TRUE,-118.3777395,34.1680031
"91604","North Hollywood/Studio City",TRUE,-118.3987842,34.1366259
"91605","North Hollywood",FALSE,-118.3987842,34.208195
"91606","North Hollywood",FALSE,-118.3900204,34.1873985
"91607","North Hollywood/Valley Village",TRUE,-118.3987842,34.167305
"91608","Universal City",FALSE,-118.3519973,34.1361007
"91609","North Hollywood",TRUE,-118.3878446,34.1893
"91610","Toluca Lake",FALSE,-118.3798111,34.1599948
"91614","Studio City",FALSE,-118.4,34.15
"91615","North Hollywood",FALSE,-118.4,34.2
"91616","North Hollywood",FALSE,-118.4,34.18
"91617","Valley Village",FALSE,-118.4,34.1599999
"91618","North Hollywood",FALSE,-118.35,34.14
"91702","Azusa",FALSE,-117.8545867,34.2667473
"91706","Baldwin Park/Irwindale",FALSE,-117.9834738,34.0812006
"91709","Chino Hills",FALSE,-117.7256083,33.959453
"91710","Chino",FALSE,-117.6786847,34.0120229
"91711","Claremont",FALSE,-117.702148,34.1707374
"91714","City Of Industry",FALSE,-117.96,34.02
"91715","City Of Industry",FALSE,-117.9703455,34.0153681
"91716","City Of Industry",FALSE,-117.96,34.02
"91722","Covina",FALSE,-117.9073244,34.0948204
"91723","Covina",FALSE,-117.8868171,34.0870296
"91724","Covina",FALSE,-117.8604472,34.0858034
"91731","El Monte",FALSE,-118.0361736,34.0835771
"91732","El Monte",FALSE,-118.0127534,34.0791053
"91733","South El Monte",FALSE,-118.0478826,34.0499095
"91734","El Monte",FALSE,-118.0341611,34.0749394
"91740","Glendora",FALSE,-117.848726,34.1194758
"91741","Glendora",FALSE,-117.8428651,34.1568319
"91744","Cityof Industry/La Puente/Valinda",FALSE,-117.9307584,34.0274622
"91745","La Puente (Hacienda Heights)",FALSE,-117.9834738,33.9990858
"91746","Bassett/City of Industry/La Puente",FALSE,-117.9893301,34.0541034
"91747","La Puente",FALSE,-117.9519585,34.0373357
"91748","Rowland Heights",FALSE,-117.8897468,33.9810337
"91749","La Puente",FALSE,-117.956279,34.0218507
"91750","La Verne",FALSE,-117.77252,34.1945949
"91754","Monterey Park",FALSE,-118.1415261,34.0472318
"91755","Monterey Park",FALSE,-118.1181199,34.0427819
"91759","Mt Baldy",FALSE,-117.7138785,34.2602336
"91765","Diamond Bar",FALSE,-117.8135579,33.9945546
"91766","Phillips Ranch/Pomona",FALSE,-117.7549295,34.0397162
"91767","Pomona",FALSE,-117.7432015,34.0836851
"91768","Pomona",FALSE,-117.7783831,34.0648167
"91769","Pomona",FALSE,-117.758368,34.0602708
"91770","Rosemead",FALSE,-118.0830047,34.0617365
"91773","San Dimas",FALSE,-117.8194197,34.1009953
"91775","San Gabriel",FALSE,-118.0830047,34.1232517
"91776","San Gabriel",FALSE,-118.0947106,34.0895991
"91778","San Gabriel",FALSE,-118.0995912,34.1023978
"91780","Temple City",FALSE,-118.0595907,34.0982956
"91788","Walnut",FALSE,-117.8640942,34.0158944
"91789","Diamond Bar/City of Industry/Walnut",FALSE,-117.8428651,34.0130769
"91790","West Covina",FALSE,-117.9424743,34.0656464
"91791","West Covina",FALSE,-117.8956062,34.0566376
"91792","West Covina",FALSE,-117.9073244,34.0332214
"91793","West Covina",FALSE,-117.9281954,34.068839
"91801","Alhambra",FALSE,-118.1181199,34.0837958
"91802","Alhambra",FALSE,-118.1256175,34.0923467
"91803","Alhambra",FALSE,-118.1415261,34.0779881
"91804","Alhambra",FALSE,-118.13,34.1
"91896","Alhambra",FALSE,-118.12,34.09
"91899","Alhambra",FALSE,-118.12,34.09
"92397","Wrightwood",FALSE,-117.6552185,34.3668408
"92821","Brea X",FALSE,-117.8604472,33.9316733
"92823","Brea X",FALSE,-117.8018337,33.9254328
"93243","Lebec",FALSE,-118.8363756,34.7936796
"93510","Acton",FALSE,-118.2292712,34.4600722
"93523","Edwards AFB",FALSE,-117.8545867,34.9609579
"93532","Elizabeth Lake/Lake Hughes",FALSE,-118.4531942,34.676617
"93534","Lancaster",FALSE,-118.1473771,34.6946278
"93535","Hi Vista",FALSE,-117.8780275,34.7311394
"93536","Lancaster/Quartz Hill",FALSE,-118.2526623,34.7190908
"93539","Lancaster",FALSE,-118.1656706,34.6824502
"93543","Littlerock/Juniper Hills",FALSE,-117.9600466,34.4965114
"93544","Llano",FALSE,-117.7607932,34.494562
"93550","Palmdale/Lake Los Angeles",FALSE,-118.0654445,34.3579404
"93551","Palmdale",FALSE,-118.1824793,34.594158
"93552","Palmdale",FALSE,-118.0303189,34.5811542
"93553","Pearblossom",FALSE,-117.9014654,34.3780816
"93560","Rosamond",FALSE,-118.3228165,34.8843005
"93563","Valyermo",FALSE,-117.7490656,34.4053384
"93584","Lancaster",FALSE,-118.14,34.7
"93586","Lancaster",FALSE,110.3390732,1.5425869
"93590","Palmdale",FALSE,-118.06,34.5
"93591","Palmdale/Lake Los Angeles",FALSE,-117.8194197,34.5925622
